ONEWEB-0668             
1 56711U 23068B   25048.52002520  .00000137  00000+0  32369-3 0  9990
2 56711  87.9116 325.3519 0001886  60.1096 300.0222 13.16594871 88007
ONEWEB-0676             
1 56712U 23068C   25048.50023528  .00000064  00000+0  13429-3 0  9995
2 56712  87.9123 325.3794 0001471  94.3783 265.7516 13.16592357 87923
ONEWEB-0677             
1 56713U 23068D   25048.41903127  .00000065  00000+0  12745-3 0  9999
2 56713  87.9289  10.9054 0001548  80.6654 279.4654 13.20772828 85812
ONEWEB-0678             
1 56714U 23068E   25048.59875212  .00000105  00000+0  24559-3 0  9993
2 56714  87.9131 355.6787 0002067  88.4334 271.7033 13.15546765 85571
ONEWEB-0679             
1 56715U 23068F   25048.46935128  .00000085  00000+0  18779-3 0  9997
2 56715  87.9122 325.3814 0001281  63.8573 296.2690 13.16593069 87940
ONEWEB-0680             
1 56716U 23068G   25048.56456479 -.00000023  00000+0 -87419-4 0  9998
2 56716  87.9329 340.5821 0001838  56.4118 303.7192 13.21826924 87078
ONEWEB-0681             
1 56717U 23068H   25048.49911108  .00000057  00000+0  10749-3 0  9992
2 56717  87.9350 340.5969 0000924 103.9758 256.1478 13.21829015 87059
ONEWEB-0682             
1 56718U 23068J   25048.85304710  .00000262  00000+0  66242-3 0  9995
2 56718  87.9133 355.6631 0001861  64.9021 295.2302 13.15559538 86470
